CCSDS_OMM_VERS = 2.0
CREATION_DATE  = 
ORIGINATOR     = 

OBJECT_NAME    = KUIPER-00247
OBJECT_ID      = 2025-301V
CENTER_NAME    = EARTH
REF_FRAME      = TEME
TIME_SYSTEM    = UTC
MEAN_ELEMENT_THEORY = SGP/SGP4

EPOCH          = 2026-01-09T06:10:52.064256
MEAN_MOTION    = 15.34466318
ECCENTRICITY   = .00111676
INCLINATION    = 51.8646
RA_OF_ASC_NODE = 352.6602
ARG_OF_PERICENTER = 196.8407
MEAN_ANOMALY   = 163.2209

EPHEMERIS_TYPE = 0
CLASSIFICATION_TYPE = U
NORAD_CAT_ID   = 67152
ELEMENT_SET_NO = 999
REV_AT_EPOCH   = 459
BSTAR          = .52809213E-3
MEAN_MOTION_DOT = .1759E-3
MEAN_MOTION_DDOT = 0

CCSDS_OMM_VERS = 2.0
CREATION_DATE  = 
ORIGINATOR     = 

OBJECT_NAME    = KUIPER-00248
OBJECT_ID      = 2025-301W
CENTER_NAME    = EARTH
REF_FRAME      = TEME
TIME_SYSTEM    = UTC
MEAN_ELEMENT_THEORY = SGP/SGP4

EPOCH          = 2026-01-09T05:54:31.749984
MEAN_MOTION    = 15.35228480
ECCENTRICITY   = .00084376
INCLINATION    = 51.8688
RA_OF_ASC_NODE = 352.5951
ARG_OF_PERICENTER = 181.8099
MEAN_ANOMALY   = 178.2858

EPHEMERIS_TYPE = 0
CLASSIFICATION_TYPE = U
NORAD_CAT_ID   = 67153
ELEMENT_SET_NO = 999
REV_AT_EPOCH   = 476
BSTAR          = .83254711E-3
MEAN_MOTION_DOT = .28665E-3
MEAN_MOTION_DDOT = 0

CCSDS_OMM_VERS = 2.0
CREATION_DATE  = 
ORIGINATOR     = 

OBJECT_NAME    = KUIPER-00249
OBJECT_ID      = 2025-301X
CENTER_NAME    = EARTH
REF_FRAME      = TEME
TIME_SYSTEM    = UTC
MEAN_ELEMENT_THEORY = SGP/SGP4

EPOCH          = 2026-01-09T15:12:39.325536
MEAN_MOTION    = 15.35602346
ECCENTRICITY   = .0008528
INCLINATION    = 51.8660
RA_OF_ASC_NODE = 350.6900
ARG_OF_PERICENTER = 182.2915
MEAN_ANOMALY   = 177.8033

EPHEMERIS_TYPE = 0
CLASSIFICATION_TYPE = U
NORAD_CAT_ID   = 67154
ELEMENT_SET_NO = 999
REV_AT_EPOCH   = 465
BSTAR          = .60029138E-3
MEAN_MOTION_DOT = .2079E-3
MEAN_MOTION_DDOT = 0

CCSDS_OMM_VERS = 2.0
CREATION_DATE  = 
ORIGINATOR     = 

OBJECT_NAME    = KUIPER-00250
OBJECT_ID      = 2025-301Y
CENTER_NAME    = EARTH
REF_FRAME      = TEME
TIME_SYSTEM    = UTC
MEAN_ELEMENT_THEORY = SGP/SGP4

EPOCH          = 2026-01-09T05:38:50.917920
MEAN_MOTION    = 15.36107502
ECCENTRICITY   = .00067434
INCLINATION    = 51.8719
RA_OF_ASC_NODE = 352.5282
ARG_OF_PERICENTER = 169.6297
MEAN_ANOMALY   = 190.4829

EPHEMERIS_TYPE = 0
CLASSIFICATION_TYPE = U
NORAD_CAT_ID   = 67155
ELEMENT_SET_NO = 999
REV_AT_EPOCH   = 462
BSTAR          = .91960221E-3
MEAN_MOTION_DOT = .32621E-3
MEAN_MOTION_DDOT = 0

CCSDS_OMM_VERS = 2.0
CREATION_DATE  = 
ORIGINATOR     = 

OBJECT_NAME    = KUIPER-00251
OBJECT_ID      = 2025-301Z
CENTER_NAME    = EARTH
REF_FRAME      = TEME
TIME_SYSTEM    = UTC
MEAN_ELEMENT_THEORY = SGP/SGP4

EPOCH          = 2026-01-09T15:16:10.816320
MEAN_MOTION    = 15.35215342
ECCENTRICITY   = .00090775
INCLINATION    = 51.8670
RA_OF_ASC_NODE = 350.7075
ARG_OF_PERICENTER = 179.8778
MEAN_ANOMALY   = 180.2211

EPHEMERIS_TYPE = 0
CLASSIFICATION_TYPE = U
NORAD_CAT_ID   = 67156
ELEMENT_SET_NO = 999
REV_AT_EPOCH   = 484
BSTAR          = .65503181E-3
MEAN_MOTION_DOT = .22447E-3
MEAN_MOTION_DDOT = 0

CCSDS_OMM_VERS = 2.0
CREATION_DATE  = 
ORIGINATOR     = 

OBJECT_NAME    = KUIPER-00252
OBJECT_ID      = 2025-301AA
CENTER_NAME    = EARTH
REF_FRAME      = TEME
TIME_SYSTEM    = UTC
MEAN_ELEMENT_THEORY = SGP/SGP4

EPOCH          = 2026-01-09T15:26:44.312352
MEAN_MOTION    = 15.34879962
ECCENTRICITY   = .00098384
INCLINATION    = 51.8665
RA_OF_ASC_NODE = 350.7532
ARG_OF_PERICENTER = 192.0628
MEAN_ANOMALY   = 168.0123

EPHEMERIS_TYPE = 0
CLASSIFICATION_TYPE = U
NORAD_CAT_ID   = 67157
ELEMENT_SET_NO = 999
REV_AT_EPOCH   = 465
BSTAR          = .60577949E-3
MEAN_MOTION_DOT = .20505E-3
MEAN_MOTION_DDOT = 0

CCSDS_OMM_VERS = 2.0
CREATION_DATE  = 
ORIGINATOR     = 

OBJECT_NAME    = KUIPER-00261
OBJECT_ID      = 2025-301AB
CENTER_NAME    = EARTH
REF_FRAME      = TEME
TIME_SYSTEM    = UTC
MEAN_ELEMENT_THEORY = SGP/SGP4

EPOCH          = 2026-01-09T05:37:41.085120
MEAN_MOTION    = 15.36065772
ECCENTRICITY   = .00060481
INCLINATION    = 51.8702
RA_OF_ASC_NODE = 352.5218
ARG_OF_PERICENTER = 171.1116
MEAN_ANOMALY   = 188.9978

EPHEMERIS_TYPE = 0
CLASSIFICATION_TYPE = U
NORAD_CAT_ID   = 67158
ELEMENT_SET_NO = 999
REV_AT_EPOCH   = 459
BSTAR          = .14561647E-2
MEAN_MOTION_DOT = .51937E-3
MEAN_MOTION_DDOT = 0

CCSDS_OMM_VERS = 2.0
CREATION_DATE  = 
ORIGINATOR     = 

OBJECT_NAME    = KUIPER-00265
OBJECT_ID      = 2025-301AC
CENTER_NAME    = EARTH
REF_FRAME      = TEME
TIME_SYSTEM    = UTC
MEAN_ELEMENT_THEORY = SGP/SGP4

EPOCH          = 2026-01-09T20:00:00.999360
MEAN_MOTION    = 15.28055834
ECCENTRICITY   = .0001749
INCLINATION    = 51.8781
RA_OF_ASC_NODE = 349.7239
ARG_OF_PERICENTER = 113.5158
MEAN_ANOMALY   = 287.9437

EPHEMERIS_TYPE = 0
CLASSIFICATION_TYPE = U
NORAD_CAT_ID   = 67159
ELEMENT_SET_NO = 999
REV_AT_EPOCH   = 471
BSTAR          = -.1369E-1
MEAN_MOTION_DOT = -.36234E-2
MEAN_MOTION_DDOT = 0

CCSDS_OMM_VERS = 2.0
CREATION_DATE  = 
ORIGINATOR     = 

OBJECT_NAME    = GALILEO 33
OBJECT_ID      = 2025-302A
CENTER_NAME    = EARTH
REF_FRAME      = TEME
TIME_SYSTEM    = UTC
MEAN_ELEMENT_THEORY = SGP/SGP4

EPOCH          = 2025-12-18T03:30:19.486368
MEAN_MOTION    = 1.72906186
ECCENTRICITY   = .00084238
INCLINATION    = 54.2406
RA_OF_ASC_NODE = 107.2544
ARG_OF_PERICENTER = 237.6458
MEAN_ANOMALY   = 122.2317

EPHEMERIS_TYPE = 0
CLASSIFICATION_TYPE = U
NORAD_CAT_ID   = 67160
ELEMENT_SET_NO = 999
REV_AT_EPOCH   = 2
BSTAR          = 0
MEAN_MOTION_DOT = -.7E-7
MEAN_MOTION_DDOT = 0

CCSDS_OMM_VERS = 2.0
CREATION_DATE  = 
ORIGINATOR     = 

OBJECT_NAME    = GALILEO B
OBJECT_ID      = 2025-302B
CENTER_NAME    = EARTH
REF_FRAME      = TEME
TIME_SYSTEM    = UTC
MEAN_ELEMENT_THEORY = SGP/SGP4

EPOCH          = 2026-01-07T22:59:13.920000
MEAN_MOTION    = 1.72972217
ECCENTRICITY   = .00050783
INCLINATION    = 54.2395
RA_OF_ASC_NODE = 106.6121
ARG_OF_PERICENTER = 260.5272
MEAN_ANOMALY   = 99.4223

EPHEMERIS_TYPE = 0
CLASSIFICATION_TYPE = U
NORAD_CAT_ID   = 67161
ELEMENT_SET_NO = 999
REV_AT_EPOCH   = 39
BSTAR          = 0
MEAN_MOTION_DOT = -.21E-6
MEAN_MOTION_DDOT = 0

CCSDS_OMM_VERS = 2.0
CREATION_DATE  = 
ORIGINATOR     = 

OBJECT_NAME    = GALILEO 33 (139)
OBJECT_ID      = 2025-302C
CENTER_NAME    = EARTH
REF_FRAME      = TEME
TIME_SYSTEM    = UTC
MEAN_ELEMENT_THEORY = SGP/SGP4

EPOCH          = 2025-12-22T04:22:43.605696
MEAN_MOTION    = 1.73130437
ECCENTRICITY   = .0000312
INCLINATION    = 54.2447
RA_OF_ASC_NODE = 107.1379
ARG_OF_PERICENTER = 196.8367
MEAN_ANOMALY   = 159.4994

EPHEMERIS_TYPE = 0
CLASSIFICATION_TYPE = U
NORAD_CAT_ID   = 67162
ELEMENT_SET_NO = 999
REV_AT_EPOCH   = 12
BSTAR          = 0
MEAN_MOTION_DOT = .6E-7
MEAN_MOTION_DDOT = 0

CCSDS_OMM_VERS = 2.0
CREATION_DATE  = 
ORIGINATOR     = 

OBJECT_NAME    = STARLINK-35755
OBJECT_ID      = 2025-303A
CENTER_NAME    = EARTH
REF_FRAME      = TEME
TIME_SYSTEM    = UTC
MEAN_ELEMENT_THEORY = SGP/SGP4

EPOCH          = 2025-12-17T14:36:01.999872
MEAN_MOTION    = 16.01284782
ECCENTRICITY   = .00115
INCLINATION    = 43.0100
RA_OF_ASC_NODE = 69.0834
ARG_OF_PERICENTER = 323.6500
MEAN_ANOMALY   = 9.4800

EPHEMERIS_TYPE = 0
CLASSIFICATION_TYPE = U
NORAD_CAT_ID   = 67163
ELEMENT_SET_NO = 999
REV_AT_EPOCH   = 1
BSTAR          = 0
MEAN_MOTION_DOT = -.2699E-4
MEAN_MOTION_DDOT = .8533731E-5

